{
  "type": "FeatureCollection",
  "features": [
    {
      "type": "Feature",
      "properties": {
        "norad_id": 33860,
        "name": "IRIDIUM 33 DEB",
        "group": "iridium-33-debris",
        "lat": 22.610113062778805,
        "lon": -157.86646448265628,
        "alt_km": 673.4710382825988,
        "timestamp": "2025-12-20T20:38:44.826414+00:00",
        "meta_object_name": "IRIDIUM 33 DEB",
        "meta_object_id": "1997-051AD",
        "meta_epoch": "2025-12-20T13:57:22.221216",
        "meta_mean_motion": 14.6745366,
        "meta_eccentricity": 0.00064969,
        "meta_inclination": 86.3822,
        "meta_ra_of_asc_node": 23.7668,
        "meta_arg_of_pericenter": 328.1322,
        "meta_mean_anomaly": 157.5693,
        "meta_ephemeris_type": 0,
        "meta_classification_type": "U",
        "meta_norad_cat_id": 33860,
        "meta_element_set_no": 999,
        "meta_rev_at_epoch": 88837,
        "meta_bstar": 0.00067779964,
        "meta_mean_motion_dot": 3.859e-05,
        "meta_mean_motion_ddot": 0,
        "tle_line1": "1 33860U 97051AD  25354.58150719  .00003859  00000+0  67780-3 0  9992",
        "tle_line2": "2 33860  86.3822  23.7668 0006496 328.1322 157.5693 14.67453660888371"
      },
      "geometry": {
        "type": "Point",
        "coordinates": [
          -157.86646448265628,
          22.610113062778805
        ]
      }
    },
    {
      "type": "Feature",
      "properties": {
        "norad_id": 33862,
        "name": "IRIDIUM 33 DEB",
        "group": "iridium-33-debris",
        "lat": -73.82207150915727,
        "lon": -133.54523558980594,
        "alt_km": 701.1156659686267,
        "timestamp": "2025-12-20T20:38:44.826426+00:00",
        "meta_object_name": "IRIDIUM 33 DEB",
        "meta_object_id": "1997-051AF",
        "meta_epoch": "2025-12-20T13:30:03.805056",
        "meta_mean_motion": 14.69587199,
        "meta_eccentricity": 0.00526759,
        "meta_inclination": 86.4079,
        "meta_ra_of_asc_node": 34.0806,
        "meta_arg_of_pericenter": 42.9982,
        "meta_mean_anomaly": 77.561,
        "meta_ephemeris_type": 0,
        "meta_classification_type": "U",
        "meta_norad_cat_id": 33862,
        "meta_element_set_no": 999,
        "meta_rev_at_epoch": 88938,
        "meta_bstar": 0.00081002149,
        "meta_mean_motion_dot": 4.938e-05,
        "meta_mean_motion_ddot": 0,
        "tle_line1": "1 33862U 97051AF  25354.56254404  .00004938  00000+0  81002-3 0  9990",
        "tle_line2": "2 33862  86.4079  34.0806 0052675  42.9982  77.5610 14.69587199889389"
      },
      "geometry": {
        "type": "Point",
        "coordinates": [
          -133.54523558980594,
          -73.82207150915727
        ]
      }
    },
    {
      "type": "Feature",
      "properties": {
        "norad_id": 33866,
        "name": "IRIDIUM 33 DEB",
        "group": "iridium-33-debris",
        "lat": 72.19643855458513,
        "lon": -102.02447249464332,
        "alt_km": 727.6076616671198,
        "timestamp": "2025-12-20T20:38:44.826438+00:00",
        "meta_object_name": "IRIDIUM 33 DEB",
        "meta_object_id": "1997-051AK",
        "meta_epoch": "2025-12-20T06:55:12.571680",
        "meta_mean_motion": 14.25296077,
        "meta_eccentricity": 0.01149854,
        "meta_inclination": 86.3,
        "meta_ra_of_asc_node": 89.8422,
        "meta_arg_of_pericenter": 137.4548,
        "meta_mean_anomaly": 277.9322,
        "meta_ephemeris_type": 0,
        "meta_classification_type": "U",
        "meta_norad_cat_id": 33866,
        "meta_element_set_no": 999,
        "meta_rev_at_epoch": 86918,
        "meta_bstar": 0.00040225424,
        "meta_mean_motion_dot": 1.034e-05,
        "meta_mean_motion_ddot": 0,
        "tle_line1": "1 33866U 97051AK  25354.28833995  .00001034  00000+0  40225-3 0  9997",
        "tle_line2": "2 33866  86.3000  89.8422 0114985 137.4548 277.9322 14.25296077869185"
      },
      "geometry": {
        "type": "Point",
        "coordinates": [
          -102.02447249464332,
          72.19643855458513
        ]
      }
    },
    {
      "type": "Feature",
      "properties": {
        "norad_id": 33867,
        "name": "IRIDIUM 33 DEB",
        "group": "iridium-33-debris",
        "lat": -42.42383948375675,
        "lon": 169.16704319006794,
        "alt_km": 326.5978739574566,
        "timestamp": "2025-12-20T20:38:44.826449+00:00",
        "meta_object_name": "IRIDIUM 33 DEB",
        "meta_object_id": "1997-051AL",
        "meta_epoch": "2025-12-20T00:00:24.546240",
        "meta_mean_motion": 15.83320916,
        "meta_eccentricity": 0.00135723,
        "meta_inclination": 86.3644,
        "meta_ra_of_asc_node": 346.2932,
        "meta_arg_of_pericenter": 95.1198,
        "meta_mean_anomaly": 265.1629,
        "meta_ephemeris_type": 0,
        "meta_classification_type": "U",
        "meta_norad_cat_id": 33867,
        "meta_element_set_no": 999,
        "meta_rev_at_epoch": 89625,
        "meta_bstar": 0.0064207293,
        "meta_mean_motion_dot": 0.01574163,
        "meta_mean_motion_ddot": 0,
        "tle_line1": "1 33867U 97051AL  25354.00028410  .01574163  00000+0  64207-2 0  9990",
        "tle_line2": "2 33867  86.3644 346.2932 0013572  95.1198 265.1629 15.83320916896259"
      },
      "geometry": {
        "type": "Point",
        "coordinates": [
          169.16704319006794,
          -42.42383948375675
        ]
      }
    },
    {
      "type": "Feature",
      "properties": {
        "norad_id": 33870,
        "name": "IRIDIUM 33 DEB",
        "group": "iridium-33-debris",
        "lat": 85.53342131246531,
        "lon": 109.04346847861495,
        "alt_km": 724.8303956580548,
        "timestamp": "2025-12-20T20:38:44.826460+00:00",
        "meta_object_name": "IRIDIUM 33 DEB",
        "meta_object_id": "1997-051AP",
        "meta_epoch": "2025-12-20T03:53:26.545056",
        "meta_mean_motion": 14.45886051,
        "meta_eccentricity": 0.00222495,
        "meta_inclination": 86.3743,
        "meta_ra_of_asc_node": 55.0796,
        "meta_arg_of_pericenter": 154.3397,
        "meta_mean_anomaly": 261.7164,
        "meta_ephemeris_type": 0,
        "meta_classification_type": "U",
        "meta_norad_cat_id": 33870,
        "meta_element_set_no": 999,
        "meta_rev_at_epoch": 88244,
        "meta_bstar": 0.00046884783,
        "meta_mean_motion_dot": 1.69e-05,
        "meta_mean_motion_ddot": 0,
        "tle_line1": "1 33870U 97051AP  25354.16211279  .00001690  00000+0  46885-3 0  9990",
        "tle_line2": "2 33870  86.3743  55.0796 0022249 154.3397 261.7164 14.45886051882442"
      },
      "geometry": {
        "type": "Point",
        "coordinates": [
          109.04346847861495,
          85.53342131246531
        ]
      }
    },
    {
      "type": "Feature",
      "properties": {
        "norad_id": 33881,
        "name": "IRIDIUM 33 DEB",
        "group": "iridium-33-debris",
        "lat": -86.24535797053503,
        "lon": 28.8371083168876,
        "alt_km": 734.703365386018,
        "timestamp": "2025-12-20T20:38:44.826471+00:00",
        "meta_object_name": "IRIDIUM 33 DEB",
        "meta_object_id": "1997-051BA",
        "meta_epoch": "2025-12-18T18:38:37.341312",
        "meta_mean_motion": 14.56678227,
        "meta_eccentricity": 0.00614608,
        "meta_inclination": 86.3861,
        "meta_ra_of_asc_node": 104.1184,
        "meta_arg_of_pericenter": 155.2089,
        "meta_mean_anomaly": 356.6087,
        "meta_ephemeris_type": 0,
        "meta_classification_type": "U",
        "meta_norad_cat_id": 33881,
        "meta_element_set_no": 999,
        "meta_rev_at_epoch": 87588,
        "meta_bstar": 0.0015458281,
        "meta_mean_motion_dot": 7.103e-05,
        "meta_mean_motion_ddot": 0,
        "tle_line1": "1 33881U 97051BA  25352.77682108  .00007103  00000+0  15458-2 0  9996",
        "tle_line2": "2 33881  86.3861 104.1184 0061460 155.2089 356.6087 14.56678227875882"
      },
      "geometry": {
        "type": "Point",
        "coordinates": [
          28.8371083168876,
          -86.24535797053503
        ]
      }
    },
    {
      "type": "Feature",
      "properties": {
        "norad_id": 33884,
        "name": "IRIDIUM 33 DEB",
        "group": "iridium-33-debris",
        "lat": 73.54169222666532,
        "lon": 173.74028168982093,
        "alt_km": 636.4340203895281,
        "timestamp": "2025-12-20T20:38:44.826482+00:00",
        "meta_object_name": "IRIDIUM 33 DEB",
        "meta_object_id": "1997-051BD",
        "meta_epoch": "2025-12-20T12:38:08.754144",
        "meta_mean_motion": 14.7756889,
        "meta_eccentricity": 0.00091521,
        "meta_inclination": 86.3691,
        "meta_ra_of_asc_node": 6.3031,
        "meta_arg_of_pericenter": 293.2876,
        "meta_mean_anomaly": 198.595,
        "meta_ephemeris_type": 0,
        "meta_classification_type": "U",
        "meta_norad_cat_id": 33884,
        "meta_element_set_no": 999,
        "meta_rev_at_epoch": 88962,
        "meta_bstar": 0.0009197818,
        "meta_mean_motion_dot": 6.597e-05,
        "meta_mean_motion_ddot": 0,
        "tle_line1": "1 33884U 97051BD  25354.52649021  .00006597  00000+0  91978-3 0  9999",
        "tle_line2": "2 33884  86.3691   6.3031 0009152 293.2876 198.5950 14.77568890889623"
      },
      "geometry": {
        "type": "Point",
        "coordinates": [
          173.74028168982093,
          73.54169222666532
        ]
      }
    }
  ]
}